Total gap duration: 4 days, 5:28:15.549486
Total gap duration: 4 days, 5:12:57.344852
STARLINK-30768
1 58120U 23162C   24100.89987935  .00000717  00000+0  68144-4 0  9996
2 58120  43.0042 330.1389 0001524 271.8458  88.2210 15.02528970 27183
Total gap duration: 4 days, 4:48:49.234944
STARLINK-5398
1 54866U 22177AY  24100.90565634  .00001320  00000+0  11280-3 0  9993
2 54866  43.0055 317.0083 0001101 263.1592  96.9125 15.02533570 71013
Total gap duration: 4 days, 4:53:32.345739
STARLINK-30804
1 58155U 23166F   24101.25001157  .00024277  00000+0  88686-3 0  9991
2 58155  53.1148 222.5703 0001435  94.0218 258.9069 15.27996925 26277
Total gap duration: 4 days, 4:49:50.575466
STARLINK-2309
1 47995U 21024U   24100.90896791  .00014965  00000+0  10206-2 0  9994
2 47995  53.0533 173.8861 0001347  63.5437 296.5690 15.06429318170028
Total gap duration: 4 days, 5:08:35.400990
STARLINK-1523
1 46028U 20055B   24101.47561577  .00000995  00000+0  85680-4 0  9995
2 46028  53.0566  21.0204 0001472  86.8721 273.2436 15.06409132203140
Total gap duration: 4 days, 4:58:59.996546
STARLINK-5603
1 55762U 23028X   24100.93445667  .00000493  00000+0  49141-4 0  9999
2 55762  70.0005 186.3767 0003197 271.4376  88.6417 14.98333105 61869
Total gap duration: 4 days, 5:04:17.907233
STARLINK-31117
1 58776U 24011M   24100.83348364  .00001121  00000+0  97659-4 0  9991
2 58776  53.1574 298.5540 0001382  88.0425 272.0723 15.04921318 14433
Total gap duration: 4 days, 4:58:33.097718
STARLINK-3983
1 52618U 22052W   24101.18092858  .00007159  00000+0  46728-3 0  9993
2 52618  53.2158 164.8504 0001803  81.1773 278.9423 15.08849976105913
Total gap duration: 4 days, 4:59:02.640425
STARLINK-5762
1 55590U 23020X   24101.54634746  .00000603  00000+0  59701-4 0  9992
2 55590  43.0025 197.8807 0001400 276.9345  83.1338 15.02532982 63902
Total gap duration: 4 days, 4:56:24.674275
STARLINK-1221
1 45227U 20012BB  24101.43140097  .00000877  00000+0  77758-4 0  9990
2 45227  53.0562 261.2204 0001666  94.6177 265.5003 15.06401544229186
Total gap duration: 4 days, 5:01:03.394831
STARLINK-4394
1 53467U 22099C   24101.34041537  .00001003  00000+0  82661-4 0  9992
2 53467  97.6554 223.2175 0002034  91.2775 268.8682 15.01270709 91445
Total gap duration: 4 days, 4:52:51.851610
STARLINK-3525
1 51733U 22016V   24101.56736556  .00000488  00000+0  48759-4 0  9997
2 51733  53.2140 213.1226 0001648  85.0355 275.0826 15.08846734119230
Total gap duration: 4 days, 5:09:45.260395
STARLINK-4433
1 53478U 22099P   24100.59057935  .00000796  00000+0  66516-4 0  9998
2 53478  97.6551 222.4342 0001040 100.0626 260.0716 15.01265034 91336
Total gap duration: 4 days, 4:56:44.301244
STARLINK-2574
1 48395U 21038AU  24100.64314890  .00001568  00000+0  12421-3 0  9997
2 48395  53.0536 240.3817 0001184  83.7399 276.3725 15.06385027163156
Total gap duration: 4 days, 4:55:08.997397
STARLINK-2157
1 47743U 21017X   24100.70757604  .00001687  00000+0  13213-3 0  9993
2 47743  53.0539  99.4702 0001340  92.4922 267.6220 15.06394790172547
Total gap duration: 4 days, 5:06:48.933891
STARLINK-5220
1 54760U 22175C   24100.83917465  .00000127  00000+0  26082-4 0  9990
2 54760  53.2178 301.5723 0001311  90.8929 269.2214 15.08839141 74416
Total gap duration: 4 days, 5:04:19.480952
STARLINK-5608
1 55353U 23013Y   24101.13666537  .00000310  00000+0  38030-4 0  9996
2 55353  43.0031 135.6659 0001170 269.5343  90.5365 15.02529353 67062
Total gap duration: 4 days, 5:01:10.576403
STARLINK-1294
1 45551U 20025W   24101.40191311  .00000939  00000+0  81895-4 0  9992
2 45551  53.0557 341.3519 0001262  93.4119 266.7014 15.06403419219518
Total gap duration: 4 days, 4:58:20.079281
STARLINK-2454
1 48116U 21027AA  24101.18581210  .00001498  00000+0  11944-3 0  9999
2 48116  53.0542  67.3202 0001451  89.5586 270.5570 15.06410878166732
Total gap duration: 4 days, 4:45:24.184956
STARLINK-3329
1 50827U 22001AA  24100.92517164 -.00000281  00000+0  41729-6 0  9999
2 50827  53.2165  65.9950 0001304  91.9484 268.1658 15.08838190124919
Total gap duration: 4 days, 4:51:53.362125
STARLINK-3333
1 50805U 22001C   24101.18369403 -.00000673  00000+0 -24192-4 0  9994
2 50805  53.2187  54.8351 0001479  94.6181 265.4980 15.08836733126368
Total gap duration: 4 days, 4:55:14.354519
STARLINK-31147
1 58681U 23211Q   24100.96131242  .00002176  00000+0  92984-4 0  9993
2 58681  43.0006  65.2690 0001187 237.9183 122.1553 15.25909017 16949
Total gap duration: 4 days, 4:53:25.732818
STARLINK-3733
1 52137U 22029BB  24101.35021209  .00001218  00000+0  94665-4 0  9998
2 52137  53.2176 324.0903 0002076  89.8932 270.2298 15.08834478115510
Total gap duration: 4 days, 4:52:18.693029
STARLINK-31281
1 59077U 24041D   24101.20865521  .00000357  00000+0  23495-4 0  9997
2 59077  42.9958 289.7134 0001914 279.6617  80.4018 15.25898935  7579
Total gap duration: 4 days, 4:56:15.260005
STARLINK-5180
1 55318U 23010BB  24101.31994589  .00000435  00000+0  44279-4 0  9995
2 55318  69.9986 325.2778 0003049 270.9579  89.1230 14.98332215 68847
Total gap duration: 4 days, 4:57:15.901273
STARLINK-1664
1 46553U 20070X   24100.86928775  .00003075  00000+0  22520-3 0  9999
2 46553  53.0544  43.7503 0001424  93.2210 266.8942 15.06407749194594
Total gap duration: 4 days, 5:02:19.339741
STARLINK-5459
1 55669U 23021AT  24101.50956995 -.00000687  00000+0 -49764-4 0  9991
2 55669  69.9995 124.8287 0002402 264.7973  95.2912 14.98325185 64406
Total gap duration: 4 days, 5:03:06.900057
STARLINK-2673
1 48649U 21044M   24101.45949630  .00000116  00000+0  26677-4 0  9999
2 48649  53.0562  16.0900 0001823  82.8792 277.2404 15.06402883159301
Total gap duration: 4 days, 4:59:50.018040
STARLINK-3103
1 49177U 21082AZ  24101.41672419  .00000388  00000+0  40346-4 0  9992
2 49177  70.0010 215.0558 0003126 271.4213  88.6587 14.98334952143565
Total gap duration: 4 days, 5:06:59.332307
STARLINK-2009
1 47633U 21012P   24101.32679344 -.00000534  00000+0 -16961-4 0  9995
2 47633  53.0532 326.7172 0001272  80.0210 280.0923 15.06400281174210
Total gap duration: 4 days, 5:01:06.651181
STARLINK-5270
1 55299U 23010AG  24101.05313080  .00000508  00000+0  50400-4 0  9999
2 55299  70.0008 345.8298 0002662 271.0904  88.9950 14.98327144 68315
Total gap duration: 4 days, 5:04:29.760798
STARLINK-2586
1 48390U 21038AP  24101.07802162  .00001851  00000+0  14313-3 0  9991
2 48390  53.0554 237.8069 0001634  89.2037 270.9139 15.06395386162596
Total gap duration: 4 days, 4:53:32.392167
STARLINK-3882
1 52475U 22049AA  24101.55722687  .00002657  00000+0  18488-3 0  9991
2 52475  53.2165 313.3824 0001879  96.4576 263.6630 15.08857831107014
Total gap duration: 4 days, 4:58:36.232281
STARLINK-4356
1 53224U 22084AM  24101.15126430  .00000181  00000+0  18688-4 0  9996
2 53224  97.6545 162.9538 0000651 107.8745 252.2551 15.01265145 94524
Total gap duration: 4 days, 5:12:09.546841
STARLINK-1601
1 46120U 20057D   24101.56501110  .00005629  00000+0  39629-3 0  9997
2 46120  53.0520 210.6173 0001507  79.1948 280.9211 15.06419067201501
Total gap duration: 4 days, 5:04:10.059639
STARLINK-30392
1 57855U 23141R   24100.94603690  .00032320  00000+0  15431-2 0  9990
2 57855  53.1132 290.7532 0001277  82.8280 277.2861 15.18791801 33358
Total gap duration: 4 days, 4:53:53.170166
STARLINK-2436
1 48101U 21027K   24101.15726766  .00001523  00000+0  12107-3 0  9998
2 48101  53.0547  57.6515 0001454  97.7383 262.3771 15.06408311166875
Total gap duration: 4 days, 5:16:34.170068
STARLINK-2681
1 48465U 21040AP  24101.21347060  .00002902  00000+0  21371-3 0  9994
2 48465  53.0528  87.1965 0001406  92.4159 267.6991 15.06389240162499
Total gap duration: 4 days, 4:44:17.026843
STARLINK-30475
1 57929U 23147S   24101.58335648  .00011502  00000+0  44882-3 0  9996
2 57929  43.0001 157.5169 0001517 265.2119 193.9357 15.25912720 31528
Total gap duration: 4 days, 5:04:01.435427
STARLINK-30781
1 58123U 23162F   24100.89653956  .00002868  00000+0  22726-3 0  9996
2 58123  43.0053 330.1106 0001209 266.6471  93.4233 15.02543453 27188
Total gap duration: 4 days, 4:36:21.146822
STARLINK-1686
1 46328U 20062D   24101.41758524  .00002981  00000+0  21905-3 0  9996
2 46328  53.0523 251.2832 0001932  87.4050 272.7160 15.06376678199514
Total gap duration: 4 days, 4:55:14.171660
STARLINK-5289
1 55278U 23010K   24101.15350794  .00001534  00000+0  13637-3 0  9990
2 55278  70.0011   5.6468 0003029 267.5812  92.5000 14.98325158 67849
Total gap duration: 4 days, 4:57:06.923973
STARLINK-30463
1 57909U 23146U   24101.49870850  .00002123  00000+0  17212-3 0  9998
2 57909  43.0032 146.8194 0001156 276.1786  83.8924 15.02544673 31990
Total gap duration: 4 days, 4:52:29.623408
STARLINK-30787
1 58128U 23162L   24101.01617965  .00001513  00000+0  12704-3 0  9997
2 58128  43.0035 329.2877 0001596 265.8783  94.1877 15.02536118 27208
Total gap duration: 4 days, 4:49:29.548465
STARLINK-1601
1 46120U 20057D   24101.56501110  .00005629  00000+0  39629-3 0  9997
2 46120  53.0520 210.6173 0001507  79.1948 280.9211 15.06419067201501
Total gap duration: 4 days, 5:04:10.059639
STARLINK-1962
1 47563U 21009R   24100.79787448  .00004540  00000+0  32342-3 0  9997
2 47563  53.0526 279.0611 0001286  76.3856 283.7276 15.06405717175459
Total gap duration: 4 days, 4:59:45.540816
STARLINK-2039
1 47655U 21012AM  24101.04760121  .00001362  00000+0  11026-3 0  9996
2 47655  53.0541 327.9424 0001023 103.4145 256.6958 15.06408212174161
Total gap duration: 4 days, 4:54:28.800028
STARLINK-5366
1 55499U 23015BC  24101.49700853  .00000447  00000+0  48134-4 0  9995
2 55499  43.0031 172.2449 0001099 275.5706  84.5011 15.02541937 65372
Total gap duration: 4 days, 5:12:45.399069
STARLINK-5033
1 55412U 23014X   24100.56999450  .00001324  00000+0  11868-3 0  9997
2 55412  70.0009  47.0695 0002940 277.7088  82.3737 14.98339455 65901
Total gap duration: 4 days, 4:58:33.482426
STARLINK-30533
1 58037U 23156K   24100.96598735  .00000521  00000+0  54923-4 0  9993
2 58037  53.1111  92.7294 0001639  88.2295 271.8882 15.05570147 29218
